STARLINK-35772          
1 66976U 25288T   25355.16668980 -.02435959  00000+0 -28364-1 0  9995
2 66976  43.0010 115.9450 0001775 273.6498 119.0068 15.64272386  3189
STARLINK-35770          
1 66977U 25288U   25355.16668980 -.01526454  00000+0 -98931-2 0  9994
2 66977  43.0015 115.4959 0001322 267.1797 305.4833 15.78064728  3187
STARLINK-35787          
1 66978U 25288V   25355.16668980 -.01552868  00000+0 -10144-1 0  9992
2 66978  43.0015 115.4798 0001553 269.6566 309.2250 15.77943627  3184
STARLINK-36107          
1 66979U 25288W   25355.16668980 -.01562473  00000+0 -10266-1 0  9991
2 66979  43.0015 115.4747 0001339 269.4541 311.6935 15.77838052  3184
STARLINK-36086          
1 66980U 25288X   25355.16668980 -.01574039  00000+0 -10377-1 0  9997
2 66980  43.0013 115.4686 0001580 263.6570 319.5965 15.77784678  3186
STARLINK-36142          
1 66981U 25288Y   25355.16668980 -.01582709  00000+0 -10463-1 0  9997
2 66981  43.0015 115.4635 0001601 267.6600 317.6512 15.77741514  3184
STARLINK-36113          
1 66982U 25288Z   25355.16668980 -.01590461  00000+0 -10543-1 0  9991
2 66982  43.0017 115.4580 0001620 258.5840 328.7947 15.77695920  3186
STARLINK-36145          
1 66983U 25288AA  25355.16668980 -.01634520  00000+0 -10694-1 0  9994
2 66983  43.0013 115.4474 0001301 267.9125 323.6349 15.77582196  3181
STARLINK-35591          
1 66984U 25288AB  25355.16668980 -.01598546  00000+0 -10634-1 0  9996
2 66984  43.0014 115.4517 0001316 265.0844 324.3845 15.77639996  3184
STARLINK-36103          
1 66985U 25288AC  25355.16668980 -.01645275  00000+0 -10804-1 0  9998
2 66985  43.0014 115.4420 0001564 270.2979 323.3604 15.77515151  3188
STARLINK-36135          
1 66986U 25288AD  25355.16668980 -.01551450  00000+0 -10381-1 0  9990
2 66986  43.0009 115.4364 0001260 269.5934 326.1774 15.77413859  3186
STARLINK-36147          
1 66987U 25288AE  25355.16668980 -.01494420  00000+0 -99803-2 0  9991
2 66987  43.0014 115.4319 0001598 270.0816 327.7438 15.77335114  3184
