CCSDS_OMM_VERS = 2.0
CREATION_DATE  = 
ORIGINATOR     = 

OBJECT_NAME    = STARLINK-35772
OBJECT_ID      = 2025-288T
CENTER_NAME    = EARTH
REF_FRAME      = TEME
TIME_SYSTEM    = UTC
MEAN_ELEMENT_THEORY = SGP/SGP4

EPOCH          = 2025-12-21T04:00:01.998720
MEAN_MOTION    = 15.64272386
ECCENTRICITY   = .0001775
INCLINATION    = 43.0010
RA_OF_ASC_NODE = 115.9450
ARG_OF_PERICENTER = 273.6498
MEAN_ANOMALY   = 119.0068

EPHEMERIS_TYPE = 0
CLASSIFICATION_TYPE = U
NORAD_CAT_ID   = 66976
ELEMENT_SET_NO = 999
REV_AT_EPOCH   = 318
BSTAR          = -.28364E-1
MEAN_MOTION_DOT = -.2435959E-1
MEAN_MOTION_DDOT = 0

CCSDS_OMM_VERS = 2.0
CREATION_DATE  = 
ORIGINATOR     = 

OBJECT_NAME    = STARLINK-35770
OBJECT_ID      = 2025-288U
CENTER_NAME    = EARTH
REF_FRAME      = TEME
TIME_SYSTEM    = UTC
MEAN_ELEMENT_THEORY = SGP/SGP4

EPOCH          = 2025-12-21T04:00:01.998720
MEAN_MOTION    = 15.78064728
ECCENTRICITY   = .0001322
INCLINATION    = 43.0015
RA_OF_ASC_NODE = 115.4959
ARG_OF_PERICENTER = 267.1797
MEAN_ANOMALY   = 305.4833

EPHEMERIS_TYPE = 0
CLASSIFICATION_TYPE = U
NORAD_CAT_ID   = 66977
ELEMENT_SET_NO = 999
REV_AT_EPOCH   = 318
BSTAR          = -.98931E-2
MEAN_MOTION_DOT = -.1526454E-1
MEAN_MOTION_DDOT = 0

CCSDS_OMM_VERS = 2.0
CREATION_DATE  = 
ORIGINATOR     = 

OBJECT_NAME    = STARLINK-35787
OBJECT_ID      = 2025-288V
CENTER_NAME    = EARTH
REF_FRAME      = TEME
TIME_SYSTEM    = UTC
MEAN_ELEMENT_THEORY = SGP/SGP4

EPOCH          = 2025-12-21T04:00:01.998720
MEAN_MOTION    = 15.77943627
ECCENTRICITY   = .0001553
INCLINATION    = 43.0015
RA_OF_ASC_NODE = 115.4798
ARG_OF_PERICENTER = 269.6566
MEAN_ANOMALY   = 309.2250

EPHEMERIS_TYPE = 0
CLASSIFICATION_TYPE = U
NORAD_CAT_ID   = 66978
ELEMENT_SET_NO = 999
REV_AT_EPOCH   = 318
BSTAR          = -.10144E-1
MEAN_MOTION_DOT = -.1552868E-1
MEAN_MOTION_DDOT = 0

CCSDS_OMM_VERS = 2.0
CREATION_DATE  = 
ORIGINATOR     = 

OBJECT_NAME    = STARLINK-36107
OBJECT_ID      = 2025-288W
CENTER_NAME    = EARTH
REF_FRAME      = TEME
TIME_SYSTEM    = UTC
MEAN_ELEMENT_THEORY = SGP/SGP4

EPOCH          = 2025-12-21T04:00:01.998720
MEAN_MOTION    = 15.77838052
ECCENTRICITY   = .0001339
INCLINATION    = 43.0015
RA_OF_ASC_NODE = 115.4747
ARG_OF_PERICENTER = 269.4541
MEAN_ANOMALY   = 311.6935

EPHEMERIS_TYPE = 0
CLASSIFICATION_TYPE = U
NORAD_CAT_ID   = 66979
ELEMENT_SET_NO = 999
REV_AT_EPOCH   = 318
BSTAR          = -.10266E-1
MEAN_MOTION_DOT = -.1562473E-1
MEAN_MOTION_DDOT = 0

CCSDS_OMM_VERS = 2.0
CREATION_DATE  = 
ORIGINATOR     = 

OBJECT_NAME    = STARLINK-36086
OBJECT_ID      = 2025-288X
CENTER_NAME    = EARTH
REF_FRAME      = TEME
TIME_SYSTEM    = UTC
MEAN_ELEMENT_THEORY = SGP/SGP4

EPOCH          = 2025-12-21T04:00:01.998720
MEAN_MOTION    = 15.77784678
ECCENTRICITY   = .000158
INCLINATION    = 43.0013
RA_OF_ASC_NODE = 115.4686
ARG_OF_PERICENTER = 263.6570
MEAN_ANOMALY   = 319.5965

EPHEMERIS_TYPE = 0
CLASSIFICATION_TYPE = U
NORAD_CAT_ID   = 66980
ELEMENT_SET_NO = 999
REV_AT_EPOCH   = 318
BSTAR          = -.10377E-1
MEAN_MOTION_DOT = -.1574039E-1
MEAN_MOTION_DDOT = 0

CCSDS_OMM_VERS = 2.0
CREATION_DATE  = 
ORIGINATOR     = 

OBJECT_NAME    = STARLINK-36142
OBJECT_ID      = 2025-288Y
CENTER_NAME    = EARTH
REF_FRAME      = TEME
TIME_SYSTEM    = UTC
MEAN_ELEMENT_THEORY = SGP/SGP4

EPOCH          = 2025-12-21T04:00:01.998720
MEAN_MOTION    = 15.77741514
ECCENTRICITY   = .0001601
INCLINATION    = 43.0015
RA_OF_ASC_NODE = 115.4635
ARG_OF_PERICENTER = 267.6600
MEAN_ANOMALY   = 317.6512

EPHEMERIS_TYPE = 0
CLASSIFICATION_TYPE = U
NORAD_CAT_ID   = 66981
ELEMENT_SET_NO = 999
REV_AT_EPOCH   = 318
BSTAR          = -.10463E-1
MEAN_MOTION_DOT = -.1582709E-1
MEAN_MOTION_DDOT = 0

CCSDS_OMM_VERS = 2.0
CREATION_DATE  = 
ORIGINATOR     = 

OBJECT_NAME    = STARLINK-36113
OBJECT_ID      = 2025-288Z
CENTER_NAME    = EARTH
REF_FRAME      = TEME
TIME_SYSTEM    = UTC
MEAN_ELEMENT_THEORY = SGP/SGP4

EPOCH          = 2025-12-21T04:00:01.998720
MEAN_MOTION    = 15.77695920
ECCENTRICITY   = .000162
INCLINATION    = 43.0017
RA_OF_ASC_NODE = 115.4580
ARG_OF_PERICENTER = 258.5840
MEAN_ANOMALY   = 328.7947

EPHEMERIS_TYPE = 0
CLASSIFICATION_TYPE = U
NORAD_CAT_ID   = 66982
ELEMENT_SET_NO = 999
REV_AT_EPOCH   = 318
BSTAR          = -.10543E-1
MEAN_MOTION_DOT = -.1590461E-1
MEAN_MOTION_DDOT = 0

CCSDS_OMM_VERS = 2.0
CREATION_DATE  = 
ORIGINATOR     = 

OBJECT_NAME    = STARLINK-36145
OBJECT_ID      = 2025-288AA
CENTER_NAME    = EARTH
REF_FRAME      = TEME
TIME_SYSTEM    = UTC
MEAN_ELEMENT_THEORY = SGP/SGP4

EPOCH          = 2025-12-21T04:00:01.998720
MEAN_MOTION    = 15.77582196
ECCENTRICITY   = .0001301
INCLINATION    = 43.0013
RA_OF_ASC_NODE = 115.4474
ARG_OF_PERICENTER = 267.9125
MEAN_ANOMALY   = 323.6349

EPHEMERIS_TYPE = 0
CLASSIFICATION_TYPE = U
NORAD_CAT_ID   = 66983
ELEMENT_SET_NO = 999
REV_AT_EPOCH   = 318
BSTAR          = -.10694E-1
MEAN_MOTION_DOT = -.163452E-1
MEAN_MOTION_DDOT = 0

CCSDS_OMM_VERS = 2.0
CREATION_DATE  = 
ORIGINATOR     = 

OBJECT_NAME    = STARLINK-35591
OBJECT_ID      = 2025-288AB
CENTER_NAME    = EARTH
REF_FRAME      = TEME
TIME_SYSTEM    = UTC
MEAN_ELEMENT_THEORY = SGP/SGP4

EPOCH          = 2025-12-21T04:00:01.998720
MEAN_MOTION    = 15.77639996
ECCENTRICITY   = .0001316
INCLINATION    = 43.0014
RA_OF_ASC_NODE = 115.4517
ARG_OF_PERICENTER = 265.0844
MEAN_ANOMALY   = 324.3845

EPHEMERIS_TYPE = 0
CLASSIFICATION_TYPE = U
NORAD_CAT_ID   = 66984
ELEMENT_SET_NO = 999
REV_AT_EPOCH   = 318
BSTAR          = -.10634E-1
MEAN_MOTION_DOT = -.1598546E-1
MEAN_MOTION_DDOT = 0

CCSDS_OMM_VERS = 2.0
CREATION_DATE  = 
ORIGINATOR     = 

OBJECT_NAME    = STARLINK-36103
OBJECT_ID      = 2025-288AC
CENTER_NAME    = EARTH
REF_FRAME      = TEME
TIME_SYSTEM    = UTC
MEAN_ELEMENT_THEORY = SGP/SGP4

EPOCH          = 2025-12-21T04:00:01.998720
MEAN_MOTION    = 15.77515151
ECCENTRICITY   = .0001564
INCLINATION    = 43.0014
RA_OF_ASC_NODE = 115.4420
ARG_OF_PERICENTER = 270.2979
MEAN_ANOMALY   = 323.3604

EPHEMERIS_TYPE = 0
CLASSIFICATION_TYPE = U
NORAD_CAT_ID   = 66985
ELEMENT_SET_NO = 999
REV_AT_EPOCH   = 318
BSTAR          = -.10804E-1
MEAN_MOTION_DOT = -.1645275E-1
MEAN_MOTION_DDOT = 0

CCSDS_OMM_VERS = 2.0
CREATION_DATE  = 
ORIGINATOR     = 

OBJECT_NAME    = STARLINK-36135
OBJECT_ID      = 2025-288AD
CENTER_NAME    = EARTH
REF_FRAME      = TEME
TIME_SYSTEM    = UTC
MEAN_ELEMENT_THEORY = SGP/SGP4

EPOCH          = 2025-12-21T04:00:01.998720
MEAN_MOTION    = 15.77413859
ECCENTRICITY   = .000126
INCLINATION    = 43.0009
RA_OF_ASC_NODE = 115.4364
ARG_OF_PERICENTER = 269.5934
MEAN_ANOMALY   = 326.1774

EPHEMERIS_TYPE = 0
CLASSIFICATION_TYPE = U
NORAD_CAT_ID   = 66986
ELEMENT_SET_NO = 999
REV_AT_EPOCH   = 318
BSTAR          = -.10381E-1
MEAN_MOTION_DOT = -.155145E-1
MEAN_MOTION_DDOT = 0

CCSDS_OMM_VERS = 2.0
CREATION_DATE  = 
ORIGINATOR     = 

OBJECT_NAME    = STARLINK-36147
OBJECT_ID      = 2025-288AE
CENTER_NAME    = EARTH
REF_FRAME      = TEME
TIME_SYSTEM    = UTC
MEAN_ELEMENT_THEORY = SGP/SGP4

EPOCH          = 2025-12-21T04:00:01.998720
MEAN_MOTION    = 15.77335114
ECCENTRICITY   = .0001598
INCLINATION    = 43.0014
RA_OF_ASC_NODE = 115.4319
ARG_OF_PERICENTER = 270.0816
MEAN_ANOMALY   = 327.7438

EPHEMERIS_TYPE = 0
CLASSIFICATION_TYPE = U
NORAD_CAT_ID   = 66987
ELEMENT_SET_NO = 999
REV_AT_EPOCH   = 318
BSTAR          = -.99803E-2
MEAN_MOTION_DOT = -.149442E-1
MEAN_MOTION_DDOT = 0

